GLOBALSTAR M067 [+]     
1 32263U 07048A   23286.54978435 -.00000101  00000+0 -26504-4 0  9995
2 32263  51.9752  28.4926 0001505 111.8712 261.3811 12.40632442733441
GLOBALSTAR M070 [+]     
1 32264U 07048B   23286.90393270 -.00000059  00000+0  24879-3 0  9997
2 32264  51.9741 193.7023 0000594  99.2588 337.8417 12.62279906736340
GLOBALSTAR M066 [+]     
1 32265U 07048C   23286.60988528 -.00000084  00000+0  11065-3 0  9992
2 32265  51.9684  56.6612 0000979  75.4818 297.4307 12.62266016738571
GLOBALSTAR M068 [-]     
1 32266U 07048D   23286.94457998 -.00000058  00000+0  25508-3 0  9990
2 32266  51.9912   8.4854 0000725 188.5204 343.6739 12.62767958740200
GLOBALSTAR M079 [+]     
1 37188U 10054A   23286.92959194 -.00000077  00000+0  14698-3 0  9991
2 37188  52.0031 203.5974 0000877  61.2822  14.9577 12.62268801599139
GLOBALSTAR M074 [+]     
1 37189U 10054B   23286.95675326 -.00000082  00000+0  12338-3 0  9992
2 37189  52.0007 202.9317 0000726  72.2233   7.8383 12.62270613599745
GLOBALSTAR M076 [+]     
1 37190U 10054C   23286.52798310 -.00000088  00000+0  90735-4 0  9990
2 37190  52.0021 204.3525 0001249  80.0052  90.6237 12.62262052599406
GLOBALSTAR M077 [+]     
1 37191U 10054D   23286.95593822 -.00000055  00000+0  27474-3 0  9992
2 37191  52.0057 159.7318 0000840  84.3725 290.6836 12.62267519599836
